start=new Date('2021-10-21T00:00:00.000Z').valueOf();
sats=[{"RCS_SIZE":"LARGE","BSTAR":"0.00002140400000","TLE_LINE1":"1 48287U 21036M   21293.76559000  .00000037  00000-0  21404-4 0  9995","MEAN_ANOMALY":"258.6870","SITE":"AFETR","REV_AT_EPOCH":"2701","CLASSIFICATION_TYPE":"U","TIME_SYSTEM":"UTC","LAUNCH_DATE":"2021-04-29","RA_OF_ASC_NODE":"68.4326","FILE":"3175135","MEAN_ELEMENT_THEORY":"SGP4","OBJECT_TYPE":"PAYLOAD","NORAD_CAT_ID":"48287","OBJECT_NAME":"STARLINK-2566","APOAPSIS":"548.134","EPOCH":"2021-10-20T18:22:26.976000","ELEMENT_SET_NO":"999","MEAN_MOTION_DDOT":"0.0000000000000","ECCENTRICITY":"0.00013130","TLE_LINE2":"2 48287  53.0549  68.4326 0001313 101.4266 258.6870 15.06396455 27014","REF_FRAME":"TEME","DECAY_DATE":null,"INCLINATION":"53.0549","CENTER_NAME":"EARTH","PERIOD":"95.592","MEAN_MOTION":"15.06396455","OBJECT_ID":"2021-036M","SEMIMAJOR_AXIS":"6925.359","ARG_OF_PERICENTER":"101.4266","COUNTRY_CODE":"US","MEAN_MOTION_DOT":"0.00000037","PERIAPSIS":"546.315","EPHEMERIS_TYPE":"0","GP_ID":"187755790"},{"OBJECT_TYPE":"PAYLOAD","NORAD_CAT_ID":"48288","FILE":"3175135","MEAN_ELEMENT_THEORY":"SGP4","OBJECT_NAME":"STARLINK-2562","APOAPSIS":"548.172","EPOCH":"2021-10-20T16:41:36.964608","ELEMENT_SET_NO":"999","MEAN_MOTION_DDOT":"0.0000000000000","ECCENTRICITY":"0.00013450","TLE_LINE1":"1 48288U 21036N   21293.69556672  .00000355  00000-0  42725-4 0  9992","MEAN_ANOMALY":"257.3380","RCS_SIZE":"LARGE","BSTAR":"0.00004272500000","TIME_SYSTEM":"UTC","RA_OF_ASC_NODE":"68.7503","LAUNCH_DATE":"2021-04-29","SITE":"AFETR","REV_AT_EPOCH":"2700","CLASSIFICATION_TYPE":"U","ARG_OF_PERICENTER":"102.7759","SEMIMAJOR_AXIS":"6925.375","PERIAPSIS":"546.309","GP_ID":"187756541","EPHEMERIS_TYPE":"0","COUNTRY_CODE":"US","MEAN_MOTION_DOT":"0.00000355","TLE_LINE2":"2 48288  53.0566  68.7503 0001345 102.7759 257.3380 15.06391326 27003","REF_FRAME":"TEME","DECAY_DATE":null,"INCLINATION":"53.0566","MEAN_MOTION":"15.06391326","OBJECT_ID":"2021-036N","CENTER_NAME":"EARTH","PERIOD":"95.593"},{"MEAN_MOTION":"15.06386735","OBJECT_ID":"2021-036P","PERIOD":"95.593","CENTER_NAME":"EARTH","TLE_LINE2":"2 48289  53.0553  68.7667 0001451 106.8864 253.2284 15.06386735 27007","REF_FRAME":"TEME","DECAY_DATE":null,"INCLINATION":"53.0553","PERIAPSIS":"546.249","GP_ID":"187757292","EPHEMERIS_TYPE":"0","COUNTRY_CODE":"US","MEAN_MOTION_DOT":"-0.00000520","ARG_OF_PERICENTER":"106.8864","SEMIMAJOR_AXIS":"6925.389","TIME_SYSTEM":"UTC","RA_OF_ASC_NODE":"68.7667","LAUNCH_DATE":"2021-04-29","SITE":"AFETR","CLASSIFICATION_TYPE":"U","REV_AT_EPOCH":"2700","TLE_LINE1":"1 48289U 21036P   21293.69188272 -.00000520  00000-0 -15993-4 0  9993","MEAN_ANOMALY":"253.2284","RCS_SIZE":"LARGE","BSTAR":"-0.00001599300000","OBJECT_NAME":"STARLINK-2545","APOAPSIS":"548.259","EPOCH":"2021-10-20T16:36:18.667008","ELEMENT_SET_NO":"999","MEAN_MOTION_DDOT":"0.0000000000000","ECCENTRICITY":"0.00014510","OBJECT_TYPE":"PAYLOAD","NORAD_CAT_ID":"48289","FILE":"3175135","MEAN_ELEMENT_THEORY":"SGP4"},{"NORAD_CAT_ID":"48290","OBJECT_TYPE":"PAYLOAD","FILE":"3175135","MEAN_ELEMENT_THEORY":"SGP4","EPOCH":"2021-10-20T16:31:00.311520","APOAPSIS":"548.163","OBJECT_NAME":"STARLINK-2540","ECCENTRICITY":"0.00013740","MEAN_MOTION_DDOT":"0.0000000000000","ELEMENT_SET_NO":"999","TLE_LINE1":"1 48290U 21036Q   21293.68819805 -.00000105  00000-0  11816-4 0  9995","MEAN_ANOMALY":"262.1083","RCS_SIZE":"LARGE","BSTAR":"0.00001181600000","RA_OF_ASC_NODE":"68.8025","LAUNCH_DATE":"2021-04-29","TIME_SYSTEM":"UTC","SITE":"AFETR","REV_AT_EPOCH":"2700","CLASSIFICATION_TYPE":"U","ARG_OF_PERICENTER":"98.0062","SEMIMAJOR_AXIS":"6925.347","EPHEMERIS_TYPE":"0","GP_ID":"187757532","PERIAPSIS":"546.260","COUNTRY_CODE":"US","MEAN_MOTION_DOT":"-0.00000105","REF_FRAME":"TEME","TLE_LINE2":"2 48290  53.0557  68.8025 0001374  98.0062 262.1083 15.06400565 27002","INCLINATION":"53.0557","DECAY_DATE":null,"MEAN_MOTION":"15.06400565","OBJECT_ID":"2021-036Q","CENTER_NAME":"EARTH","PERIOD":"95.592"},{"CLASSIFICATION_TYPE":"U","REV_AT_EPOCH":"2701","SITE":"AFETR","LAUNCH_DATE":"2021-04-29","RA_OF_ASC_NODE":"68.5115","TIME_SYSTEM":"UTC","BSTAR":"0.00000223270000","RCS_SIZE":"LARGE","MEAN_ANOMALY":"253.2555","TLE_LINE1":"1 48291U 21036R   21293.75085594 -.00000248  00000-0  22327-5 0  9992","MEAN_MOTION_DDOT":"0.0000000000000","ECCENTRICITY":"0.00014960","ELEMENT_SET_NO":"999","EPOCH":"2021-10-20T18:01:13.953216","APOAPSIS":"548.279","OBJECT_NAME":"STARLINK-2555","MEAN_ELEMENT_THEORY":"SGP4","FILE":"3175135","NORAD_CAT_ID":"48291","OBJECT_TYPE":"PAYLOAD","PERIOD":"95.593","CENTER_NAME":"EARTH","OBJECT_ID":"2021-036R","MEAN_MOTION":"15.06390384","INCLINATION":"53.0559","DECAY_DATE":null,"REF_FRAME":"TEME","TLE_LINE2":"2 48291  53.0559  68.5115 0001496 106.8599 253.2555 15.06390384 27013","MEAN_MOTION_DOT":"-0.00000248","COUNTRY_CODE":"US","EPHEMERIS_TYPE":"0","GP_ID":"187756291","PERIAPSIS":"546.207","SEMIMAJOR_AXIS":"6925.378","ARG_OF_PERICENTER":"106.8599"},{"CENTER_NAME":"EARTH","PERIOD":"95.592","MEAN_MOTION":"15.06399414","OBJECT_ID":"2021-036S","TLE_LINE2":"2 48292  53.0559  68.5284 0001441  93.7341 266.3813 15.06399414 27015","REF_FRAME":"TEME","DECAY_DATE":null,"INCLINATION":"53.0559","COUNTRY_CODE":"US","MEAN_MOTION_DOT":"-0.00000402","PERIAPSIS":"546.217","GP_ID":"187757042","EPHEMERIS_TYPE":"0","SEMIMAJOR_AXIS":"6925.350","ARG_OF_PERICENTER":"93.7341","SITE":"AFETR","CLASSIFICATION_TYPE":"U","REV_AT_EPOCH":"2701","TIME_SYSTEM":"UTC","RA_OF_ASC_NODE":"68.5284","LAUNCH_DATE":"2021-04-29","RCS_SIZE":"MEDIUM","BSTAR":"-0.00000810580000","TLE_LINE1":"1 48292U 21036S   21293.74623339 -.00000402  00000-0 -81058-5 0  9996","MEAN_ANOMALY":"266.3813","OBJECT_NAME":"STARLINK-2542","APOAPSIS":"548.213","EPOCH":"2021-10-20T17:54:34.564896","ELEMENT_SET_NO":"999","MEAN_MOTION_DDOT":"0.0000000000000","ECCENTRICITY":"0.00014410","FILE":"3175135","MEAN_ELEMENT_THEORY":"SGP4","OBJECT_TYPE":"PAYLOAD","NORAD_CAT_ID":"48292"},{"CLASSIFICATION_TYPE":"U","REV_AT_EPOCH":"2701","SITE":"AFETR","TIME_SYSTEM":"UTC","RA_OF_ASC_NODE":"68.5385","LAUNCH_DATE":"2021-04-29","BSTAR":"0.00013307000000","RCS_SIZE":"LARGE","MEAN_ANOMALY":"269.5480","TLE_LINE1":"1 48293U 21036T   21293.74348824  .00001702  00000-0  13307-3 0  9992","ELEMENT_SET_NO":"999","MEAN_MOTION_DDOT":"0.0000000000000","ECCENTRICITY":"0.00013520","OBJECT_NAME":"STARLINK-2550","APOAPSIS":"548.117","EPOCH":"2021-10-20T17:50:37.383936","MEAN_ELEMENT_THEORY":"SGP4","FILE":"3175135","OBJECT_TYPE":"PAYLOAD","NORAD_CAT_ID":"48293","PERIOD":"95.591","CENTER_NAME":"EARTH","OBJECT_ID":"2021-036T","MEAN_MOTION":"15.06410840","DECAY_DATE":null,"INCLINATION":"53.0558","TLE_LINE2":"2 48293  53.0558  68.5385 0001352  90.5664 269.5480 15.06410840 27013","REF_FRAME":"TEME","MEAN_MOTION_DOT":"0.00001702","COUNTRY_CODE":"US","PERIAPSIS":"546.244","EPHEMERIS_TYPE":"0","GP_ID":"187756792","SEMIMAJOR_AXIS":"6925.315","ARG_OF_PERICENTER":"90.5664"},{"FILE":"3175135","MEAN_ELEMENT_THEORY":"SGP4","OBJECT_TYPE":"PAYLOAD","NORAD_CAT_ID":"48294","OBJECT_NAME":"STARLINK-2533","APOAPSIS":"548.173","EPOCH":"2021-10-20T16:09:45.686880","ELEMENT_SET_NO":"999","ECCENTRICITY":"0.00013940","MEAN_MOTION_DDOT":"0.0000000000000","RCS_SIZE":"LARGE","BSTAR":"0.00002602500000","TLE_LINE1":"1 48294U 21036U   21293.67344545  .00000106  00000-0  26025-4 0  9990","MEAN_ANOMALY":"274.2266","SITE":"AFETR","REV_AT_EPOCH":"2700","CLASSIFICATION_TYPE":"U","TIME_SYSTEM":"UTC","RA_OF_ASC_NODE":"68.8668","LAUNCH_DATE":"2021-04-29","SEMIMAJOR_AXIS":"6925.343","ARG_OF_PERICENTER":"85.8883","COUNTRY_CODE":"US","MEAN_MOTION_DOT":"0.00000106","PERIAPSIS":"546.242","EPHEMERIS_TYPE":"0","GP_ID":"187757032","TLE_LINE2":"2 48294  53.0581  68.8668 0001394  85.8883 274.2266 15.06401858 27006","REF_FRAME":"TEME","DECAY_DATE":null,"INCLINATION":"53.0581","CENTER_NAME":"EARTH","PERIOD":"95.592","MEAN_MOTION":"15.06401858","OBJECT_ID":"2021-036U"},{"OBJECT_TYPE":"PAYLOAD","NORAD_CAT_ID":"48295","FILE":"3175135","MEAN_ELEMENT_THEORY":"SGP4","APOAPSIS":"548.281","OBJECT_NAME":"STARLINK-2535","EPOCH":"2021-10-20T22:26:37.318560","ELEMENT_SET_NO":"999","ECCENTRICITY":"0.00014680","MEAN_MOTION_DDOT":"0.0000000000000","TLE_LINE1":"1 48295U 21036V   21293.93515415 -.00000906  00000-0 -41930-4 0  9998","MEAN_ANOMALY":"267.4797","RCS_SIZE":"LARGE","BSTAR":"-0.00004193000000","TIME_SYSTEM":"UTC","LAUNCH_DATE":"2021-04-29","RA_OF_ASC_NODE":"67.6937","SITE":"AFETR","CLASSIFICATION_TYPE":"U","REV_AT_EPOCH":"2704","ARG_OF_PERICENTER":"92.6361","SEMIMAJOR_AXIS":"6925.400","PERIAPSIS":"546.248","GP_ID":"187755791","EPHEMERIS_TYPE":"0","COUNTRY_CODE":"US","MEAN_MOTION_DOT":"-0.00000906","TLE_LINE2":"2 48295  53.0581  67.6937 0001468  92.6361 267.4797 15.06383346 27040","REF_FRAME":"TEME","DECAY_DATE":null,"INCLINATION":"53.0581","MEAN_MOTION":"15.06383346","OBJECT_ID":"2021-036V","CENTER_NAME":"EARTH","PERIOD":"95.593"},{"CENTER_NAME":"EARTH","PERIOD":"95.592","MEAN_MOTION":"15.06404876","OBJECT_ID":"2021-036W","TLE_LINE2":"2 48296  53.0571  68.3020 0001444  97.1907 262.9246 15.06404876 27020","REF_FRAME":"TEME","DECAY_DATE":null,"INCLINATION":"53.0571","COUNTRY_CODE":"US","MEAN_MOTION_DOT":"0.00001295","PERIAPSIS":"546.199","GP_ID":"187756542","EPHEMERIS_TYPE":"0","SEMIMAJOR_AXIS":"6925.334","ARG_OF_PERICENTER":"97.1907","SITE":"AFETR","CLASSIFICATION_TYPE":"U","REV_AT_EPOCH":"2702","TIME_SYSTEM":"UTC","LAUNCH_DATE":"2021-04-29","RA_OF_ASC_NODE":"68.3020","RCS_SIZE":"LARGE","BSTAR":"0.00010579000000","TLE_LINE1":"1 48296U 21036W   21293.79876238  .00001295  00000-0  10579-3 0  9990","MEAN_ANOMALY":"262.9246","OBJECT_NAME":"STARLINK-2546","APOAPSIS":"548.199","EPOCH":"2021-10-20T19:10:13.069632","ELEMENT_SET_NO":"999","MEAN_MOTION_DDOT":"0.0000000000000","ECCENTRICITY":"0.00014440","FILE":"3175135","MEAN_ELEMENT_THEORY":"SGP4","OBJECT_TYPE":"PAYLOAD","NORAD_CAT_ID":"48296"}];
